SITRO-AIS 26            
1 59067U 24039S   26125.48811436  .00006522  00000+0  50876-3 0  9999
2 59067  95.3915 205.6627 0147781 117.6273 244.0045 14.93007971118341
SITRO-AIS 27            
1 59068U 24039T   26125.53720212  .00006640  00000+0  51356-3 0  9992
2 59068  95.3919 205.9486 0146799 116.1855 245.4551 14.93419666118378
SITRO-AIS 28            
1 59071U 24039U   26125.51563611  .00007457  00000+0  57562-3 0  9994
2 59071  95.3925 205.9785 0146907 116.0542 245.5892 14.93456983118376
GRBBETA                 
1 60237U 24128C   26125.07546529  .00003934  00000+0  27480-3 0  9991
2 60237  61.9916   7.4830 0046119 125.6819 234.8580 15.06291100 99774
OOV-CUBE (TUBSAT-30)    
1 60240U 24128F   26125.40076258  .00002851  00000+0  22353-3 0  9990
2 60240  61.9966  14.7429 0049636 124.3785 236.2015 15.02562046 99688
ROBUSTA-3A (MEDITERRAN*)
1 60243U 24128J   26125.06325613  .00008111  00000+0  48333-3 0  9998
2 60243  61.9878   0.6670 0046873 119.6578 240.9197 15.11010206 99906
LASARSAT                
1 62391U 24247Q   26125.10849909  .00031118  00000+0  67778-3 0  9997
2 62391  44.9722 143.7779 0004635  54.5318 305.6003 15.43771607 76655
CROCUBE                 
1 62394U 24247T   26125.47694483  .00036801  00000+0  75804-3 0  9998
2 62394  44.9706 139.6755 0004318  59.0409 301.0905 15.45343118 76731
FORESAIL-1 PRIME        
1 66778U 25276DS  26124.76815570  .00005154  00000+0  25454-3 0  9997
2 66778  97.4208 198.8442 0001037 229.0219 131.0926 15.18305678 23818
KNACKSAT-2              
1 67683U 98067XZ  26125.44029566  .00053102  00000+0  73713-3 0  9996
2 67683  51.6273 148.8684 0012765  39.4427 320.7491 15.56406096 13614
