
    {
        "ARG_OF_PERICENTER": 117.6273,
        "BSTAR": 0.00050876,
        "CLASSIFICATION_TYPE": "U",
        "ECCENTRICITY": 0.0147781,
        "ELEMENT_SET_NO": 999,
        "EPHEMERIS_TYPE": 0,
        "EPOCH": "2026-05-05T11:42:53.080704",
        "INCLINATION": 95.3915,
        "MEAN_ANOMALY": 244.0045,
        "MEAN_MOTION": 14.93007971,
        "MEAN_MOTION_DDOT": 0,
        "MEAN_MOTION_DOT": 6.522e-05,
        "NORAD_CAT_ID": 59067,
        "OBJECT_ID": "2024-039S",
        "OBJECT_NAME": "SITRO-AIS 26",
        "RA_OF_ASC_NODE": 205.6627,
        "REV_AT_EPOCH": 11834
    },
    {
        "ARG_OF_PERICENTER": 116.1855,
        "BSTAR": 0.00051356,
        "CLASSIFICATION_TYPE": "U",
        "ECCENTRICITY": 0.0146799,
        "ELEMENT_SET_NO": 999,
        "EPHEMERIS_TYPE": 0,
        "EPOCH": "2026-05-05T12:53:34.263168",
        "INCLINATION": 95.3919,
        "MEAN_ANOMALY": 245.4551,
        "MEAN_MOTION": 14.93419666,
        "MEAN_MOTION_DDOT": 0,
        "MEAN_MOTION_DOT": 6.64e-05,
        "NORAD_CAT_ID": 59068,
        "OBJECT_ID": "2024-039T",
        "OBJECT_NAME": "SITRO-AIS 27",
        "RA_OF_ASC_NODE": 205.9486,
        "REV_AT_EPOCH": 11837
    },
    {
        "ARG_OF_PERICENTER": 116.0542,
        "BSTAR": 0.00057562,
        "CLASSIFICATION_TYPE": "U",
        "ECCENTRICITY": 0.0146907,
        "ELEMENT_SET_NO": 999,
        "EPHEMERIS_TYPE": 0,
        "EPOCH": "2026-05-05T12:22:30.959904",
        "INCLINATION": 95.3925,
        "MEAN_ANOMALY": 245.5892,
        "MEAN_MOTION": 14.93456983,
        "MEAN_MOTION_DDOT": 0,
        "MEAN_MOTION_DOT": 7.457e-05,
        "NORAD_CAT_ID": 59071,
        "OBJECT_ID": "2024-039U",
        "OBJECT_NAME": "SITRO-AIS 28",
        "RA_OF_ASC_NODE": 205.9785,
        "REV_AT_EPOCH": 11837
    },
    {
        "ARG_OF_PERICENTER": 125.6819,
        "BSTAR": 0.00027479878,
        "CLASSIFICATION_TYPE": "U",
        "ECCENTRICITY": 0.00461192,
        "ELEMENT_SET_NO": 999,
        "EPHEMERIS_TYPE": 0,
        "EPOCH": "2026-05-05T01:48:40.201056",
        "INCLINATION": 61.9916,
        "MEAN_ANOMALY": 234.858,
        "MEAN_MOTION": 15.062911,
        "MEAN_MOTION_DDOT": 0,
        "MEAN_MOTION_DOT": 3.934e-05,
        "NORAD_CAT_ID": 60237,
        "OBJECT_ID": "2024-128C",
        "OBJECT_NAME": "GRBBETA",
        "RA_OF_ASC_NODE": 7.483,
        "REV_AT_EPOCH": 9977
    },
    {
        "ARG_OF_PERICENTER": 124.3785,
        "BSTAR": 0.00022353,
        "CLASSIFICATION_TYPE": "U",
        "ECCENTRICITY": 0.0049636,
        "ELEMENT_SET_NO": 999,
        "EPHEMERIS_TYPE": 0,
        "EPOCH": "2026-05-05T09:37:05.886912",
        "INCLINATION": 61.9966,
        "MEAN_ANOMALY": 236.2015,
        "MEAN_MOTION": 15.02562046,
        "MEAN_MOTION_DDOT": 0,
        "MEAN_MOTION_DOT": 2.851e-05,
        "NORAD_CAT_ID": 60240,
        "OBJECT_ID": "2024-128F",
        "OBJECT_NAME": "OOV-CUBE (TUBSAT-30)",
        "RA_OF_ASC_NODE": 14.7429,
        "REV_AT_EPOCH": 9968
    },
    {
        "ARG_OF_PERICENTER": 119.6578,
        "BSTAR": 0.00048332981,
        "CLASSIFICATION_TYPE": "U",
        "ECCENTRICITY": 0.00468735,
        "ELEMENT_SET_NO": 999,
        "EPHEMERIS_TYPE": 0,
        "EPOCH": "2026-05-05T01:31:05.329632",
        "INCLINATION": 61.9878,
        "MEAN_ANOMALY": 240.9197,
        "MEAN_MOTION": 15.11010206,
        "MEAN_MOTION_DDOT": 0,
        "MEAN_MOTION_DOT": 8.111e-05,
        "NORAD_CAT_ID": 60243,
        "OBJECT_ID": "2024-128J",
        "OBJECT_NAME": "ROBUSTA-3A (MEDITERRANEE)",
        "RA_OF_ASC_NODE": 0.667,
        "REV_AT_EPOCH": 9990
    },
    {
        "ARG_OF_PERICENTER": 54.5318,
        "BSTAR": 0.00067778348,
        "CLASSIFICATION_TYPE": "U",
        "ECCENTRICITY": 0.00046351,
        "ELEMENT_SET_NO": 999,
        "EPHEMERIS_TYPE": 0,
        "EPOCH": "2026-05-05T02:36:14.321376",
        "INCLINATION": 44.9722,
        "MEAN_ANOMALY": 305.6003,
        "MEAN_MOTION": 15.43771607,
        "MEAN_MOTION_DDOT": 0,
        "MEAN_MOTION_DOT": 0.00031118,
        "NORAD_CAT_ID": 62391,
        "OBJECT_ID": "2024-247Q",
        "OBJECT_NAME": "LASARSAT",
        "RA_OF_ASC_NODE": 143.7779,
        "REV_AT_EPOCH": 7665
    },
    {
        "ARG_OF_PERICENTER": 59.0409,
        "BSTAR": 0.00075804,
        "CLASSIFICATION_TYPE": "U",
        "ECCENTRICITY": 0.0004318,
        "ELEMENT_SET_NO": 999,
        "EPHEMERIS_TYPE": 0,
        "EPOCH": "2026-05-05T11:26:48.033312",
        "INCLINATION": 44.9706,
        "MEAN_ANOMALY": 301.0905,
        "MEAN_MOTION": 15.45343118,
        "MEAN_MOTION_DDOT": 0,
        "MEAN_MOTION_DOT": 0.00036801,
        "NORAD_CAT_ID": 62394,
        "OBJECT_ID": "2024-247T",
        "OBJECT_NAME": "CROCUBE",
        "RA_OF_ASC_NODE": 139.6755,
        "REV_AT_EPOCH": 7673
    },
    {
        "ARG_OF_PERICENTER": 229.0219,
        "BSTAR": 0.00025454321,
        "CLASSIFICATION_TYPE": "U",
        "ECCENTRICITY": 0.00010379,
        "ELEMENT_SET_NO": 999,
        "EPHEMERIS_TYPE": 0,
        "EPOCH": "2026-05-04T18:26:08.652480",
        "INCLINATION": 97.4208,
        "MEAN_ANOMALY": 131.0926,
        "MEAN_MOTION": 15.18305678,
        "MEAN_MOTION_DDOT": 0,
        "MEAN_MOTION_DOT": 5.154e-05,
        "NORAD_CAT_ID": 66778,
        "OBJECT_ID": "2025-276DS",
        "OBJECT_NAME": "FORESAIL-1 PRIME",
        "RA_OF_ASC_NODE": 198.8442,
        "REV_AT_EPOCH": 2381
    },
    {
        "ARG_OF_PERICENTER": 39.4427,
        "BSTAR": 0.00073713,
        "CLASSIFICATION_TYPE": "U",
        "ECCENTRICITY": 0.0012765,
        "ELEMENT_SET_NO": 999,
        "EPHEMERIS_TYPE": 0,
        "EPOCH": "2026-05-05T10:34:01.545024",
        "INCLINATION": 51.6273,
        "MEAN_ANOMALY": 320.7491,
        "MEAN_MOTION": 15.56406096,
        "MEAN_MOTION_DDOT": 0,
        "MEAN_MOTION_DOT": 0.00053102,
        "NORAD_CAT_ID": 67683,
        "OBJECT_ID": "1998-067XZ",
        "OBJECT_NAME": "KNACKSAT-2",
        "RA_OF_ASC_NODE": 148.8684,
        "REV_AT_EPOCH": 1361
    }